NORAD_CAT_ID,OBJECT_NAME,OBJECT_TYPE,EPOCH,MEAN_MOTION,ECCENTRICITY,INCLINATION,RA_OF_ASC_NODE,ARG_OF_PERICENTER,MEAN_ANOMALY,BSTAR,MEAN_MOTION_DOT,MEAN_MOTION_DDOT,TLE_LINE0,TLE_LINE1,TLE_LINE2,SEMIMAJOR_AXIS,PERIOD,APOGEE,PERIGEE,DECAYED
53616.0,STARLINK-4605,PAYLOAD,2024-04-15 08:23:54,15.08844307,0.0001407,53.2171,96.514,97.3196,262.7956,0.00010187,1.334e-05,0.0,0 STARLINK-4605,1 53616U 22104AE  24106.34993889  .00001334  00000-0  10187-3 0  9997,2 53616  53.2171  96.5140 0001407  97.3196 262.7956 15.08844307 91214,6917.867,95.437,540.706,538.759,0.0
53616.0,STARLINK-4605,PAYLOAD,2024-04-16 05:03:55,15.08839459,0.0001513,53.2173,92.6486,90.685,269.4315,8.2321e-05,1.022e-05,0.0,0 STARLINK-4605,1 53616U 22104AE  24107.21106399  .00001022  00000-0  82321-4 0  9990,2 53616  53.2173  92.6486 0001513  90.6850 269.4315 15.08839459 90660,6917.882,95.438,540.794,538.7,0.0
53616.0,STARLINK-4605,PAYLOAD,2024-04-16 08:14:41,15.08842154,0.0001546,53.2168,92.0534,88.1335,271.9834,0.00011071,1.474e-05,0.0,0 STARLINK-4605,1 53616U 22104AE  24107.34354023  .00001474  00000-0  11071-3 0  9997,2 53616  53.2168  92.0534 0001546  88.1335 271.9834 15.08842154 91366,6917.874,95.437,540.808,538.669,0.0
53616.0,STARLINK-4605,PAYLOAD,2024-04-16 16:11:37,15.08853697,0.0001532,53.2172,90.5698,89.6679,270.4489,0.00027264,4.055e-05,0.0,0 STARLINK-4605,1 53616U 22104AE  24107.67473463  .00004055  00000-0  27264-3 0  9992,2 53616  53.2172  90.5698 0001532  89.6679 270.4489 15.08853697 90731,6917.839,95.437,540.763,538.644,0.0
53616.0,STARLINK-4605,PAYLOAD,2024-04-17 04:54:42,15.08843644,0.0001338,53.2164,88.1869,100.9951,259.1191,8.0983e-05,1.001e-05,0.0,0 STARLINK-4605,1 53616U 22104AE  24108.20465703  .00001001  00000-0  80983-4 0  9996,2 53616  53.2164  88.1869 0001338 100.9951 259.1191 15.08843644 90813,6917.869,95.437,540.66,538.809,0.0
53616.0,STARLINK-4605,PAYLOAD,2024-04-17 08:05:28,15.08846376,0.0001789,53.2179,87.5912,103.9197,256.1995,0.0001511,2.118e-05,0.0,0 STARLINK-4605,1 53616U 22104AE  24108.33713797  .00002118  00000-0  15110-3 0  9998,2 53616  53.2179  87.5912 0001789 103.9197 256.1995 15.08846376 91518,6917.861,95.437,540.964,538.488,0.0
53616.0,STARLINK-4605,PAYLOAD,2024-04-18 07:56:16,15.08835945,0.0001907,53.2178,83.1276,136.9852,223.1289,-1.7914e-05,-5.73e-06,0.0,0 STARLINK-4605,1 53616U 22104AE  24109.33074255 -.00000573  00000-0 -17914-4 0  9998,2 53616  53.2178  83.1276 0001907 136.9852 223.1289 15.08835945 90988,6917.893,95.438,541.077,538.439,0.0
53616.0,STARLINK-4605,PAYLOAD,2024-04-19 07:47:03,15.08844285,0.000159,53.2174,78.6697,113.9062,246.2097,0.00014126,1.961e-05,0.0,0 STARLINK-4605,1 53616U 22104AE  24110.32434485  .00001961  00000-0  14126-3 0  9995,2 53616  53.2174  78.6697 0001590 113.9062 246.2097 15.08844285 91819,6917.867,95.437,540.832,538.632,0.0
53616.0,STARLINK-4605,PAYLOAD,2024-04-20 04:27:03,15.08854124,0.0001499,53.2177,74.8068,86.9173,273.199,0.0004431,6.774e-05,0.0,0 STARLINK-4605,1 53616U 22104AE  24111.18546287  .00006774  00000-0  44310-3 0  9999,2 53616  53.2177  74.8068 0001499  86.9173 273.1990 15.08854124 91265,6917.837,95.437,540.739,538.665,0.0
53616.0,STARLINK-4605,PAYLOAD,2024-04-20 07:37:50,15.08857962,0.0001478,53.2176,74.2113,88.4176,271.6985,0.00047756,7.324e-05,0.0,0 STARLINK-4605,1 53616U 22104AE  24111.31794060  .00007324  00000-0  47756-3 0  9997,2 53616  53.2176  74.2113 0001478  88.4176 271.6985 15.08857962 91963,6917.825,95.436,540.713,538.668,0.0
53616.0,STARLINK-4605,PAYLOAD,2024-04-20 21:56:18,15.08839992,0.0001602,53.2181,71.5333,118.6935,241.4219,-4.4116e-05,-9.9e-06,0.0,0 STARLINK-4605,1 53616U 22104AE  24111.91410379 -.00000990  00000-0 -44116-4 0  9993,2 53616  53.2181  71.5333 0001602 118.6935 241.4219 15.08839992 92050,6917.88,95.438,540.854,538.637,0.0
53616.0,STARLINK-4605,PAYLOAD,2024-04-21 04:17:51,15.08815111,0.0001704,53.2171,70.3438,118.7912,241.3252,-0.00055156,-9.049e-05,0.0,0 STARLINK-4605,1 53616U 22104AE  24112.17907358 -.00009049  00000-0 -55156-3 0  9999,2 53616  53.2171  70.3438 0001704 118.7912 241.3252 15.08815111 91413,6917.956,95.439,541.0,538.643,0.0
53616.0,STARLINK-4605,PAYLOAD,2024-04-21 07:28:38,15.08813365,0.0001688,53.217,69.7492,119.276,240.8401,-0.00051877,-8.529e-05,0.0,0 STARLINK-4605,1 53616U 22104AE  24112.31155611 -.00008529  00000-0 -51877-3 0  9990,2 53616  53.2170  69.7492 0001688 119.2760 240.8401 15.08813365 92119,6917.962,95.439,540.995,538.659,0.0
53616.0,STARLINK-4605,PAYLOAD,2024-04-22 02:33:16,15.08846777,0.0001652,53.2167,66.1851,124.0221,236.0928,0.0014166,0.00022333,0.0,0 STARLINK-4605,1 53616U 22104AE  24113.10643979  .00022333  00000-0  14166-2 0  9993,2 53616  53.2167  66.1851 0001652 124.0221 236.0928 15.08846777 91553,6917.86,95.437,540.868,538.582,0.0
53616.0,STARLINK-4605,PAYLOAD,2024-04-22 20:02:30,15.08862928,0.0001549,53.2173,62.9174,111.8769,248.2388,0.00088954,0.00013906,0.0,0 STARLINK-4605,1 53616U 22104AE  24113.83507416  .00013906  00000-0  88954-3 0  9991,2 53616  53.2173  62.9174 0001549 111.8769 248.2388 15.08862928 91661,6917.81,95.436,540.747,538.604,0.0
53616.0,STARLINK-4605,PAYLOAD,2024-04-23 03:59:26,15.08840643,0.0001309,53.2169,61.4264,118.1197,241.9927,6.6714e-05,7.74e-06,0.0,0 STARLINK-4605,1 53616U 22104AE  24114.16627720  .00000774  00000-0  66714-4 0  9999,2 53616  53.2169  61.4264 0001309 118.1197 241.9927 15.08840643 91714,6917.878,95.438,540.649,538.838,0.0
53616.0,STARLINK-4605,PAYLOAD,2024-04-23 19:53:17,15.08837832,0.0001267,53.2171,58.4541,115.4657,244.6466,0.00044714,6.835e-05,0.0,0 STARLINK-4605,1 53616U 22104AE  24114.82868037  .00006835  00000-0  44714-3 0  9999,2 53616  53.2171  58.4541 0001267 115.4657 244.6466 15.08837832 92495,6917.887,95.438,540.629,538.876,0.0
53616.0,STARLINK-4605,PAYLOAD,2024-04-24 03:50:13,15.08848601,0.0001293,53.2172,56.9684,103.767,256.3466,0.00068374,0.00010613,0.0,0 STARLINK-4605,1 53616U 22104AE  24115.15987919  .00010613  00000-0  68374-3 0  9994,2 53616  53.2172  56.9684 0001293 103.7670 256.3466 15.08848601 92543,6917.854,95.437,540.614,538.825,0.0
53616.0,STARLINK-4605,PAYLOAD,2024-04-25 02:05:36,15.08866053,0.0001268,53.2174,52.8058,103.5635,256.5499,0.00063739,9.878e-05,0.0,0 STARLINK-4605,1 53616U 22104AE  24116.08722838  .00009878  00000-0  63739-3 0  9995,2 53616  53.2174  52.8058 0001268 103.5635 256.5499 15.08866053 92680,6917.801,95.436,540.543,538.789,0.0
53616.0,STARLINK-4605,PAYLOAD,2024-04-25 22:45:37,15.08850886,0.0001145,53.2175,48.9401,118.7354,241.3753,0.00028887,4.314e-05,0.0,0 STARLINK-4605,1 53616U 22104AE  24116.94834650  .00004314  00000-0  28887-3 0  9991,2 53616  53.2175  48.9401 0001145 118.7354 241.3753 15.08850886 92816,6917.847,95.437,540.504,538.92,0.0
53616.0,STARLINK-4605,PAYLOAD,2024-04-26 01:56:23,15.08847574,0.0001923,53.2179,48.3442,155.4341,204.6743,-2.9816e-05,-7.63e-06,0.0,0 STARLINK-4605,1 53616U 22104AE  24117.08082471 -.00000763  00000-0 -29816-4 0  9993,2 53616  53.2179  48.3442 0001923 155.4341 204.6743 15.08847574 92155,6917.857,95.437,541.053,538.392,0.0
53616.0,STARLINK-4605,PAYLOAD,2024-04-27 04:57:57,15.08844479,0.0001106,53.2168,43.2856,109.6932,250.418,0.0004497,6.877e-05,0.0,0 STARLINK-4605,1 53616U 22104AE  24118.20691335  .00006877  00000-0  44970-3 0  9990,2 53616  53.2168  43.2856 0001106 109.6932 250.4180 15.08844479 92320,6917.867,95.437,540.497,538.967,0.0
53616.0,STARLINK-4605,PAYLOAD,2024-04-27 22:27:12,15.08835777,0.0001275,53.2181,40.0184,106.9937,253.1195,0.0002377,3.497e-05,0.0,0 STARLINK-4605,1 53616U 22104AE  24118.93556154  .00003497  00000-0  23770-3 0  9999,2 53616  53.2181  40.0184 0001275 106.9937 253.1195 15.08835777 93111,6917.893,95.438,540.64,538.876,0.0
53616.0,STARLINK-4605,PAYLOAD,2024-04-28 00:02:35,15.08832163,0.0001006,53.2164,39.7148,96.986,263.1246,0.00014507,2.021e-05,0.0,0 STARLINK-4605,1 53616U 22104AE  24119.00180236  .00002021  00000-0  14507-3 0  9992,2 53616  53.2164  39.7148 0001006  96.9860 263.1246 15.08832163 92441,6917.904,95.438,540.465,539.073,0.0
53616.0,STARLINK-4605,PAYLOAD,2024-04-28 11:10:18,15.08833813,0.0001358,53.2179,37.6399,79.5845,280.53,0.00015511,2.181e-05,0.0,0 STARLINK-4605,1 53616U 22104AE  24119.46548655  .00002181  00000-0  15511-3 0  9998,2 53616  53.2179  37.6399 0001358  79.5845 280.5300 15.08833813 93192,6917.899,95.438,540.704,538.825,0.0
53616.0,STARLINK-4605,PAYLOAD,2024-04-28 22:18:00,15.08834686,0.0001421,53.2186,35.5612,88.8307,271.2848,0.00016184,2.288e-05,0.0,0 STARLINK-4605,1 53616U 22104AE  24119.92916888  .00002288  00000-0  16184-3 0  9991,2 53616  53.2186  35.5612 0001421  88.8307 271.2848 15.08834686 93263,6917.897,95.438,540.745,538.779,0.0
53616.0,STARLINK-4605,PAYLOAD,2024-04-29 04:39:32,15.08842035,0.0001113,53.2171,34.3667,73.0498,287.0616,0.0003666,5.552e-05,0.0,0 STARLINK-4605,1 53616U 22104AE  24120.19412506  .00005552  00000-0  36660-3 0  9998,2 53616  53.2171  34.3667 0001113  73.0498 287.0616 15.08842035 92623,6917.874,95.437,540.509,538.969,0.0
53616.0,STARLINK-4605,PAYLOAD,2024-04-29 11:01:04,15.08855238,0.0001339,53.2194,33.1825,96.7435,263.3709,0.00058334,9.012e-05,0.0,0 STARLINK-4605,1 53616U 22104AE  24120.45908305  .00009012  00000-0  58334-3 0  9991,2 53616  53.2194  33.1825 0001339  96.7435 263.3709 15.08855238 93343,6917.834,95.437,540.625,538.773,0.0
53616.0,STARLINK-4605,PAYLOAD,2024-04-29 22:08:46,15.08839782,0.0001145,53.2174,31.1005,96.5383,263.5739,2.6602e-05,1.36e-06,0.0,0 STARLINK-4605,1 53616U 22104AE  24120.92276553  .00000136  00000-0  26602-4 0  9998,2 53616  53.2174  31.1005 0001145  96.5383 263.5739 15.08839782 93413,6917.881,95.438,540.538,538.954,0.0
53616.0,STARLINK-4605,PAYLOAD,2024-04-30 04:30:19,15.08853688,0.0001198,53.2176,29.9087,86.9126,273.2004,0.00037204,5.64e-05,0.0,0 STARLINK-4605,1 53616U 22104AE  24121.18772195  .00005640  00000-0  37204-3 0  9994,2 53616  53.2176  29.9087 0001198  86.9126 273.2004 15.08853688 92778,6917.839,95.437,540.532,538.875,0.0
